LEMUR-2-TEODOR          
1 66768U 25276DG  26120.21450778  .00006538  00000+0  30206-3 0  9995
2 66768  97.4167 194.7372 0001097  75.5777 284.5580 15.20518922 23155
LEMUR-2-LAILA           
1 66776U 25276DQ  26120.19527298  .00006019  00000+0  27663-3 0  9990
2 66776  97.4192 194.8087 0001610  53.6658 306.4726 15.20732706 23156
LEMUR-2-CELIJO-SB-PK    
1 66781U 25276DW  26120.19533252  .00006041  00000+0  49831-3 0  9999
2 66781  97.5246 192.5630 0008367 292.6855  67.3483 14.99348716 15436
LEMUR-2-FINNIAN         
1 66782U 25276DX  26120.11906236  .00006332  00000+0  51612-3 0  9991
2 66782  97.5261 192.6791 0005420 269.9310  90.1293 14.99802863 12790
LEMUR-2-STARLIGHT       
1 66783U 25276DY  26120.16773764  .00005160  00000+0  43441-3 0  9994
2 66783  97.5288 192.4602 0012980 297.0158  62.9739 14.98583239 23000
LEMUR-2-TARTIFLETTE     
1 66784U 25276DZ  26120.16493029  .00006614  00000+0  55769-3 0  9999
2 66784  97.5291 192.4652 0011841 304.7739  55.2369 14.98436324 23002
LEMUR-2-VUKASIN         
1 66785U 25276EA  26120.20066566  .00007573  00000+0  61707-3 0  9991
2 66785  97.5243 192.6936 0005745 289.3874  70.6729 14.99750161 22954
LEMUR-2-HOTSPUR-TOM     
1 66786U 25276EB  26119.95444115  .00006911  00000+0  58287-3 0  9996
2 66786  97.5279 192.2575 0011903 298.9623  61.0406 14.98411109 22906
LEMUR-2-MYRA            
1 66787U 25276EC  26120.16183493  .00005831  00000+0  47643-3 0  9995
2 66787  97.5313 192.6188 0010975 310.6718  49.3552 14.99707746 23015
LEMUR-2 FIKRETDENGIZ    
1 67363U 26004A   26119.99092347  .00005237  00000+0  57670-3 0  9993
2 67363  97.8012 119.3051 0007273 305.9107  54.1434 14.87956585 16116
LEMUR-2-CALLUM-K-J      
1 67364U 26004B   26119.93112834  .00002072  00000+0  23431-3 0  9994
2 67364  97.8065 119.2750 0007144 293.4547  66.5918 14.87534774 16112
LEMUR-2-MARIO-SOUSA     
1 67365U 26004C   26119.98005313  .00004786  00000+0  52561-3 0  9993
2 67365  97.7991 119.2925 0006858 307.7307  52.3288 14.88116831 16123
LEMUR-2-SONNENBLUME     
1 67367U 26004E   26120.24340804  .00002790  00000+0  30936-3 0  9998
2 67367  97.7985 119.5500 0006624 309.0597  51.0030 14.88066892 16163
LEMUR-2-WOBLER          
1 67368U 26004F   26119.97272892  .00004352  00000+0  47798-3 0  9998
2 67368  97.8041 119.3607 0006387 297.4407  62.6159 14.88157217 16128
LEMUR-2-GRAM-E-SUE      
1 67370U 26004H   26119.96413633  .00004867  00000+0  53261-3 0  9993
2 67370  97.7973 119.2854 0005717 315.0596  45.0157 14.88251625 16120
LEMUR-2-KATIE           
1 67387U 26004AA  26120.00060529  .00005290  00000+0  55787-3 0  9996
2 67387  97.8034 119.6281 0001453 228.2783 131.8311 14.89731464 16133
LEMUR-2-HCS-BAZUS       
1 67388U 26004AB  26119.99839550  .00005609  00000+0  59254-3 0  9998
2 67388  97.8025 119.6168 0001240 204.4560 155.6599 14.89629601 16132
